{
  "type": "FeatureCollection",
  "features": [
    {
      "type": "Feature",
      "properties": {
        "norad_id": 33412,
        "name": "COSMO-SKYMED 3",
        "group": "resource",
        "lat": -75.40447450939645,
        "lon": -2.901186355497311,
        "alt_km": 564.1026653328772,
        "timestamp": "2025-12-24T11:32:59.660525+00:00",
        "meta_object_name": "COSMO-SKYMED 3",
        "meta_object_id": "2008-054A",
        "meta_epoch": "2025-12-24T04:01:45.850656",
        "meta_mean_motion": 15.05450229,
        "meta_eccentricity": 0.0017083,
        "meta_inclination": 97.8453,
        "meta_ra_of_asc_node": 208.7528,
        "meta_arg_of_pericenter": 134.3923,
        "meta_mean_anomaly": 225.8706,
        "meta_ephemeris_type": 0,
        "meta_classification_type": "U",
        "meta_norad_cat_id": 33412,
        "meta_element_set_no": 999,
        "meta_rev_at_epoch": 93059,
        "meta_bstar": 0.00024059,
        "meta_mean_motion_dot": 3.401e-05,
        "meta_mean_motion_ddot": 0,
        "tle_line1": "1 33412U 08054A   25358.16789179  .00003401  00000+0  24059-3 0  9991",
        "tle_line2": "2 33412  97.8453 208.7528 0017083 134.3923 225.8706 15.05450229930596"
      },
      "geometry": {
        "type": "Point",
        "coordinates": [
          -2.901186355497311,
          -75.40447450939645
        ]
      }
    },
    {
      "type": "Feature",
      "properties": {
        "norad_id": 33446,
        "name": "YAOGAN-4",
        "group": "resource",
        "lat": 0.3438620718723318,
        "lon": -71.58173342984736,
        "alt_km": 621.9419357829038,
        "timestamp": "2025-12-24T11:32:59.660536+00:00",
        "meta_object_name": "YAOGAN-4",
        "meta_object_id": "2008-061A",
        "meta_epoch": "2025-12-24T01:49:49.810080",
        "meta_mean_motion": 14.82714027,
        "meta_eccentricity": 0.0013007,
        "meta_inclination": 97.9197,
        "meta_ra_of_asc_node": 288.0651,
        "meta_arg_of_pericenter": 283.1439,
        "meta_mean_anomaly": 76.8323,
        "meta_ephemeris_type": 0,
        "meta_classification_type": "U",
        "meta_norad_cat_id": 33446,
        "meta_element_set_no": 999,
        "meta_rev_at_epoch": 91971,
        "meta_bstar": 0.00017033,
        "meta_mean_motion_dot": 1.323e-05,
        "meta_mean_motion_ddot": 0,
        "tle_line1": "1 33446U 08061A   25358.07627095  .00001323  00000+0  17033-3 0  9999",
        "tle_line2": "2 33446  97.9197 288.0651 0013007 283.1439  76.8323 14.82714027919717"
      },
      "geometry": {
        "type": "Point",
        "coordinates": [
          -71.58173342984736,
          0.3438620718723318
        ]
      }
    },
    {
      "type": "Feature",
      "properties": {
        "norad_id": 33492,
        "name": "GOSAT (IBUKI)",
        "group": "resource",
        "lat": 46.549794846234136,
        "lon": -64.45717139039171,
        "alt_km": 664.2121029984237,
        "timestamp": "2025-12-24T11:32:59.660546+00:00",
        "meta_object_name": "GOSAT (IBUKI)",
        "meta_object_id": "2009-002A",
        "meta_epoch": "2025-12-24T02:45:54.861120",
        "meta_mean_motion": 14.67546106,
        "meta_eccentricity": 0.0001013,
        "meta_inclination": 98.0771,
        "meta_ra_of_asc_node": 106.5605,
        "meta_arg_of_pericenter": 104.5957,
        "meta_mean_anomaly": 255.536,
        "meta_ephemeris_type": 0,
        "meta_classification_type": "U",
        "meta_norad_cat_id": 33492,
        "meta_element_set_no": 999,
        "meta_rev_at_epoch": 90578,
        "meta_bstar": 0.00015247,
        "meta_mean_motion_dot": 8.17e-06,
        "meta_mean_motion_ddot": 0,
        "tle_line1": "1 33492U 09002A   25358.11521830  .00000817  00000+0  15247-3 0  9993",
        "tle_line2": "2 33492  98.0771 106.5605 0001013 104.5957 255.5360 14.67546106905789"
      },
      "geometry": {
        "type": "Point",
        "coordinates": [
          -64.45717139039171,
          46.549794846234136
        ]
      }
    },
    {
      "type": "Feature",
      "properties": {
        "norad_id": 35681,
        "name": "DEIMOS-1",
        "group": "resource",
        "lat": 16.37549639467386,
        "lon": -19.178557939960992,
        "alt_km": 646.3003006490271,
        "timestamp": "2025-12-24T11:32:59.660558+00:00",
        "meta_object_name": "DEIMOS-1",
        "meta_object_id": "2009-041A",
        "meta_epoch": "2025-12-24T04:17:57.518880",
        "meta_mean_motion": 14.74969473,
        "meta_eccentricity": 0.0002491,
        "meta_inclination": 97.7153,
        "meta_ra_of_asc_node": 158.2504,
        "meta_arg_of_pericenter": 61.3891,
        "meta_mean_anomaly": 298.7569,
        "meta_ephemeris_type": 0,
        "meta_classification_type": "U",
        "meta_norad_cat_id": 35681,
        "meta_element_set_no": 999,
        "meta_rev_at_epoch": 88108,
        "meta_bstar": 0.00012647,
        "meta_mean_motion_dot": 8.03e-06,
        "meta_mean_motion_ddot": 0,
        "tle_line1": "1 35681U 09041A   25358.17913795  .00000803  00000+0  12647-3 0  9995",
        "tle_line2": "2 35681  97.7153 158.2504 0002491  61.3891 298.7569 14.74969473881081"
      },
      "geometry": {
        "type": "Point",
        "coordinates": [
          -19.178557939960992,
          16.37549639467386
        ]
      }
    },
    {
      "type": "Feature",
      "properties": {
        "norad_id": 35682,
        "name": "DUBAISAT-1",
        "group": "resource",
        "lat": 80.05023070308911,
        "lon": 75.89381886423801,
        "alt_km": 645.355795956415,
        "timestamp": "2025-12-24T11:32:59.660569+00:00",
        "meta_object_name": "DUBAISAT-1",
        "meta_object_id": "2009-041B",
        "meta_epoch": "2025-12-24T03:01:38.172000",
        "meta_mean_motion": 14.74633676,
        "meta_eccentricity": 0.0009261,
        "meta_inclination": 97.9797,
        "meta_ra_of_asc_node": 128.6387,
        "meta_arg_of_pericenter": 273.5108,
        "meta_mean_anomaly": 86.5042,
        "meta_ephemeris_type": 0,
        "meta_classification_type": "U",
        "meta_norad_cat_id": 35682,
        "meta_element_set_no": 999,
        "meta_rev_at_epoch": 87929,
        "meta_bstar": 0.00019234,
        "meta_mean_motion_dot": 1.233e-05,
        "meta_mean_motion_ddot": 0,
        "tle_line1": "1 35682U 09041B   25358.12613625  .00001233  00000+0  19234-3 0  9997",
        "tle_line2": "2 35682  97.9797 128.6387 0009261 273.5108  86.5042 14.74633676879290"
      },
      "geometry": {
        "type": "Point",
        "coordinates": [
          75.89381886423801,
          80.05023070308911
        ]
      }
    },
    {
      "type": "Feature",
      "properties": {
        "norad_id": 35931,
        "name": "OCEANSAT-2",
        "group": "resource",
        "lat": -23.900752422429214,
        "lon": 1.5638807520522555,
        "alt_km": 891.4307761238088,
        "timestamp": "2025-12-24T11:32:59.660580+00:00",
        "meta_object_name": "OCEANSAT-2",
        "meta_object_id": "2009-051A",
        "meta_epoch": "2025-12-24T04:48:07.017408",
        "meta_mean_motion": 13.99622888,
        "meta_eccentricity": 0.0015918,
        "meta_inclination": 98.2218,
        "meta_ra_of_asc_node": 357.6377,
        "meta_arg_of_pericenter": 14.9356,
        "meta_mean_anomaly": 345.2278,
        "meta_ephemeris_type": 0,
        "meta_classification_type": "U",
        "meta_norad_cat_id": 35931,
        "meta_element_set_no": 999,
        "meta_rev_at_epoch": 85485,
        "meta_bstar": -5.0728e-06,
        "meta_mean_motion_dot": -4.5e-07,
        "meta_mean_motion_ddot": 0,
        "tle_line1": "1 35931U 09051A   25358.20008122 -.00000045  00000+0 -50728-5 0  9991",
        "tle_line2": "2 35931  98.2218 357.6377 0015918  14.9356 345.2278 13.99622888854850"
      },
      "geometry": {
        "type": "Point",
        "coordinates": [
          1.5638807520522555,
          -23.900752422429214
        ]
      }
    },
    {
      "type": "Feature",
      "properties": {
        "norad_id": 35946,
        "name": "WORLDVIEW-2 (WV-2)",
        "group": "resource",
        "lat": -80.62476805655737,
        "lon": -175.19350023585278,
        "alt_km": 775.7756331502478,
        "timestamp": "2025-12-24T11:32:59.660591+00:00",
        "meta_object_name": "WORLDVIEW-2 (WV-2)",
        "meta_object_id": "2009-055A",
        "meta_epoch": "2025-12-24T03:38:07.211904",
        "meta_mean_motion": 14.37728903,
        "meta_eccentricity": 0.0004758,
        "meta_inclination": 98.4773,
        "meta_ra_of_asc_node": 69.0793,
        "meta_arg_of_pericenter": 42.5829,
        "meta_mean_anomaly": 317.5727,
        "meta_ephemeris_type": 0,
        "meta_classification_type": "U",
        "meta_norad_cat_id": 35946,
        "meta_element_set_no": 999,
        "meta_rev_at_epoch": 85049,
        "meta_bstar": 7.0857e-05,
        "meta_mean_motion_dot": 1.7e-06,
        "meta_mean_motion_ddot": 0,
        "tle_line1": "1 35946U 09055A   25358.15147236  .00000170  00000+0  70857-4 0  9996",
        "tle_line2": "2 35946  98.4773  69.0793 0004758  42.5829 317.5727 14.37728903850497"
      },
      "geometry": {
        "type": "Point",
        "coordinates": [
          -175.19350023585278,
          -80.62476805655737
        ]
      }
    }
  ]
}